1 51109C 22005F   22229.23798611 -.00014155  00000+0 -88770-3 0  2295
2 51109  53.2165   7.0666 0001466  54.3227 285.1529 15.08849513    12
1 51109C 22005F   22229.58312500  .00007532  00000+0  47236-3 0  2293
2 51109  53.2165   5.5171 0001520  54.6849   0.5611 15.08827709    14
1 51109C 22005F   22229.87826389  .00018822  00000+0  11800-2 0  2291
2 51109  53.2165   4.1922 0001559  54.2778 164.9759 15.08826557    10
1 51109C 22005F   22230.15743056  .00016816  00000+0  10548-2 0  2304
2 51109  53.2166   2.9390 0001482  50.5165 245.9221 15.08811304    18
1 51109C 22005F   22230.50812500  .00011722  00000+0  73505-3 0  2308
2 51109  53.2167   1.3647 0001496  50.3576 351.9990 15.08828247    11
1 51109C 22005F   22231.20395833 -.00005718  00000+0 -35849-3 0  2311
2 51109  53.2170 358.2410 0001612  51.0757 172.9806 15.08849621    12
1 51109C 22005F   22231.54979167 -.00012524  00000+0 -78544-3 0  2318
2 51109  53.2171 356.6884 0001677  53.1442 250.4529 15.08845289    15
1 51109C 22005F   22231.86576389 -.00002998  00000+0 -18804-3 0  2319
2 51109  53.2171 355.2700 0001726  54.0421 166.7978 15.08829891    17
1 51109C 22005F   22232.21576389  .00047134  00000+0  29574-2 0  2324
2 51109  53.2172 353.6988 0001823  50.3677 272.6435 15.08769295    14
1 51109C 22005F   22232.54284722  .00012349  00000+0  77437-3 0  2329
2 51109  53.2173 352.2305 0001760  49.4970 251.0683 15.08824690    15
1 51109C 22005F   22232.86020833  .00011927  00000+0  74784-3 0  2328
2 51109  53.2172 350.8059 0001748  49.3804 175.9596 15.08829114    18
1 51109C 22005F   22233.19215278  .00010765  00000+0  67488-3 0  2337
2 51109  53.2173 349.3158 0001743  49.2783 180.1035 15.08837766    10
1 51109C 22005F   22233.55951389  .00006750  00000+0  42309-3 0  2331
2 51109  53.2172 347.6666 0001728  49.6856  16.2290 15.08846465    10
1 51109C 22005F   22233.85604167 -.00005703  00000+0 -35746-3 0  2339
2 51109  53.2171 346.3355 0001742  50.2843 187.1994 15.08860492    15
1 51109C 22005F   22234.18659722 -.00014698  00000+0 -92150-3 0  2349
2 51109  53.2171 344.8516 0001785  51.7499 182.2545 15.08858656    14
1 51109C 22005F   22234.54701389  .00004710  00000+0  29536-3 0  2346
2 51109  53.2170 343.2336 0001805  53.1313 339.6859 15.08833282    14
1 51109C 22005F   22234.86368056  .00008258  00000+0  51777-3 0  2344
2 51109  53.2168 341.8121 0001822  53.3157 260.5095 15.08833919    15
1 51109C 22005F   22235.18034722  .00005809  00000+0  36424-3 0  2352
2 51109  53.2168 340.3906 0001811  53.5140 181.3245 15.08837994    16
1 51109C 22005F   22235.52479167  .00002624  00000+0  16451-3 0  2356
2 51109  53.2166 338.8444 0001818  54.1143 252.7080 15.08841887    16
1 51109C 22005F   22235.85743056  .00000813  00000+0  50967-4 0  2352
2 51109  53.2165 337.3512 0001827  53.0905 261.5535 15.08848152    14
1 51109C 22005F   22236.21159722 -.00020117  00000+0 -12615-2 0  2362
2 51109  53.2165 335.7613 0001801  52.4259  27.0452 15.08859169    18
1 51109C 22005F   22236.54145833 -.00002752  00000+0 -17263-3 0  2366
2 51109  53.2165 334.2805 0001763  51.4791  20.7409 15.08832841    12
1 51109C 22005F   22236.88868056  .00003114  00000+0  19531-3 0  2363
2 51109  53.2169 332.7223 0001809  49.3278 109.9610 15.08826675    12
1 51109C 22005F   22237.20604167  .00005466  00000+0  34278-3 0  2379
2 51109  53.2165 331.2973 0001814  50.9238  33.1420 15.08830984    19
1 51109C 22005F   22237.53590278  .00005853  00000+0  36701-3 0  2375
2 51109  53.2166 329.8165 0001827  50.6308  26.1550 15.08833055    13
1 51109C 22005F   22237.84562500  .00007237  00000+0  45374-3 0  2370
2 51109  53.2167 328.4262 0001861  50.3590 269.6939 15.08837681    19
1 51109C 22005F   22238.18659722 -.00001631  00000+0 -10228-3 0  2386
2 51109  53.2168 326.8956 0001871  49.8331 323.3291 15.08847264    16
1 51109C 22005F   22238.53034722 -.00018639  00000+0 -11688-2 0  2388
2 51109  53.2169 325.3525 0001849  48.9379  32.4405 15.08856513    12
1 51109C 22005F   22238.83868056 -.00001576  00000+0 -98820-4 0  2383
2 51109  53.2169 323.9684 0001842  48.6394 268.4807 15.08836017    13
1 51109C 22005F   22239.21784722  .00005920  00000+0  37121-3 0  2395
2 51109  53.2169 322.2664 0001828  47.8889 169.9127 15.08831496    13
1 51109C 22005F   22239.56715278  .00009921  00000+0  62209-3 0  2393
2 51109  53.2170 320.6984 0001849  48.2197 267.9790 15.08831128    19
1 51109C 22005F   22239.86993056  .00008869  00000+0  55598-3 0  2391
2 51109  53.2169 319.3392 0001850  47.9700 113.7539 15.08840564    16
1 51109C 22005F   22240.21159722 -.00014101  00000+0 -88398-3 0  2400
2 51109  53.2168 317.8055 0001799  47.2784 171.3277 15.08863057    12
1 51109C 22005F   22240.56090278 -.00009846  00000+0 -61741-3 0  2401
2 51109  53.2167 316.2374 0001781  46.9290 270.1046 15.08847503    17
1 51109C 22005F   22240.88381944 -.00014894  00000+0 -93425-3 0  2402
2 51109  53.2166 314.7878 0001717  44.3063 227.7147 15.08842561    16
1 51109C 22005F   22241.23451389 -.00017567  00000+0 -11022-2 0  2416
2 51109  53.2164 313.2135 0001679  43.9158 334.0475 15.08836020    10
1 51109C 22005F   22241.55673611  .00009649  00000+0  60540-3 0  2415
2 51109  53.2162 311.7670 0001670  43.4746 285.6963 15.08806626    16
1 51109C 22005F   22241.83451389  .00008107  00000+0  50861-3 0  2415
2 51109  53.2160 310.5201 0001671  43.4882 355.3131 15.08814370    10
1 51109C 22005F   22242.18590278  .00001223  00000+0  76723-4 0  2424
2 51109  53.2157 308.9426 0001665  43.9098 104.5815 15.08821191    15
1 51109C 22005F   22242.48381944  .00008008  00000+0  50230-3 0  2427
2 51109  53.2155 307.6052 0001677  44.0545 283.5354 15.08819001    19
1 51109C 22005F   22242.82756944  .00005394  00000+0  33834-3 0  2427
2 51109  53.2153 306.0621 0001698  44.0986 351.6754 15.08825593    18
1 51109C 22005F   22243.16854167  .00002678  00000+0  16795-3 0  2431
2 51109  53.2151 304.5313 0001712  44.2383  44.6293 15.08832147    17
1 51109C 22005F   22243.50048611  .00007811  00000+0  48981-3 0  2434
2 51109  53.2150 303.0410 0001730  43.9562  48.9558 15.08829483    13
1 51109C 22005F   22243.77826389  .00006526  00000+0  40920-3 0  2436
2 51109  53.2149 301.7940 0001754  44.1349 118.4310 15.08835788    10
1 51109C 22005F   22244.16229167  .00002855  00000+0  17898-3 0  2441
2 51109  53.2148 300.0698 0001786  44.1783  45.4920 15.08843262    10
1 51109C 22005F   22244.46854167  .00007893  00000+0  49480-3 0  2447
2 51109  53.2149 298.6949 0001810  44.1374 269.9460 15.08840674    12
1 51109C 22005F   22244.79145833 -.00004816  00000+0 -30186-3 0  2443
2 51109  53.2149 297.2451 0001823  42.6975 226.3685 15.08856690    10
1 51109C 22005F   22245.16854167 -.00022434  00000+0 -14067-2 0  2458
2 51109  53.2150 295.5520 0001830  42.4230 116.0243 15.08863219    10
1 51109C 22005F   22245.48798611  .00004897  00000+0  30713-3 0  2452
2 51109  53.2152 294.1179 0001824  41.0133  53.5766 15.08826867    10
1 51109C 22005F   22245.82340278  .00005732  00000+0  35943-3 0  2451
2 51109  53.2154 292.6121 0001862  41.0666  76.4282 15.08832788    11
1 51109C 22005F   22246.16229167  .00002876  00000+0  18033-3 0  2460
2 51109  53.2155 291.0906 0001886  41.4798 117.7939 15.08840592    12
1 51109C 22005F   22246.49215278  .00010433  00000+0  65406-3 0  2468
2 51109  53.2157 289.6098 0001909  41.4910 110.5142 15.08837988    13
1 51109C 22005F   22246.81715278 -.00013621  00000+0 -85388-3 0  2464
2 51109  53.2158 288.1508 0001910  40.8325  77.4755 15.08863077    18
1 51109C 22005F   22247.14354167 -.00012800  00000+0 -80254-3 0  2473
2 51109  53.2159 286.6855 0001897  39.8864  52.2945 15.08855259    12
1 51109C 22005F   22247.49631944  .00003693  00000+0  23155-3 0  2477
2 51109  53.2159 285.1018 0001906  40.2040 169.2684 15.08840720    16
1 51109C 22005F   22247.81090278 -.00012831  00000+0 -80448-3 0  2476
2 51109  53.2160 283.6896 0001950  41.0619  78.1022 15.08856319    10
1 51109C 22005F   22248.13729167 -.00006847  00000+0 -42936-3 0  2489
2 51109  53.2158 282.2244 0001957  42.2026  50.8290 15.08843487    17
1 51109C 22005F   22248.48868056 -.00011764  00000+0 -73791-3 0  2485
2 51109  53.2158 280.6470 0001954  41.9585 160.7982 15.08838351    16
1 51109C 22005F   22248.80465278  .00001345  00000+0  84367-4 0  2484
2 51109  53.2157 279.2287 0001921  40.8439  79.1542 15.08821365    17
1 51109C 22005F   22249.13104167  .00002567  00000+0  16101-3 0  2496
2 51109  53.2154 277.7635 0001916  41.4233  52.4037 15.08822796    19
1 51109C 22005F   22249.48243056  .00010935  00000+0  68590-3 0  2492
2 51109  53.2151 276.1862 0001934  41.8084 161.7257 15.08816658    17
1 51109C 22005F   22249.79840278  .00005727  00000+0  35921-3 0  2490
2 51109  53.2149 274.7679 0001936  42.1647  78.5887 15.08826921    13
1 51109C 22005F   22250.16020833  .00000786  00000+0  49262-4 0  2506
2 51109  53.2146 273.1437 0001948  42.6957 244.3757 15.08836797    18
1 51109C 22005F   22250.50465278 -.00003274  00000+0 -20534-3 0  2507
2 51109  53.2157 271.5987 0002043  42.1986 316.8533 15.08833926    14
1 51109C 22005F   22250.89840278  .00007564  00000+0  47435-3 0  2509
2 51109  53.2141 269.8298 0002008  40.7101 298.3042 15.08828974    12
1 51109C 22005F   22251.18937500  .00001241  00000+0  77819-4 0  2514
2 51109  53.2138 268.5235 0002031  41.0169  79.3582 15.08838668    16
1 51109C 22005F   22251.52062500  .00008877  00000+0  55653-3 0  2514
2 51109  53.2137 267.0363 0002054  41.6612  78.9875 15.08836352    13
1 51109C 22005F   22251.84006944 -.00019524  00000+0 -12242-2 0  2518
2 51109  53.2136 265.6022 0002062  40.4349  16.3223 15.08858254    19
1 51109C 22005F   22252.16784722 -.00012001  00000+0 -75266-3 0  2521
2 51109  53.2136 264.1305 0002045  40.1056 358.0688 15.08842851    17
1 51109C 22005F   22252.50256944  .00013331  00000+0  83608-3 0  2523
2 51109  53.2136 262.6277 0002086  39.8142  17.5078 15.08817395    19
